{
  "type": "FeatureCollection",
  "features": [
    {
      "type": "Feature",
      "properties": {
        "name": "Orenburg Oblast"
      },
      "geometry": {
        "type": "Polygon",
        "coordinates": [
          [
            [50.8, 52.0],
            [51.5, 52.8],
            [52.8, 53.2],
            [54.0, 53.4],
            [55.5, 53.6],
            [56.8, 53.4],
            [58.2, 53.2],
            [59.5, 52.8],
            [60.0, 52.2],
            [60.2, 51.5],
            [59.8, 51.0],
            [58.8, 50.8],
            [57.5, 50.6],
            [56.0, 50.5],
            [54.5, 50.4],
            [53.0, 50.5],
            [51.8, 50.7],
            [50.9, 51.2],
            [50.8, 52.0]
          ]
        ]
      }
    }
  ]
}